OBJECT_NAME,OBJECT_ID,EPOCH,MEAN_MOTION,ECCENTRICITY,INCLINATION,RA_OF_ASC_NODE,ARG_OF_PERICENTER,MEAN_ANOMALY,EPHEMERIS_TYPE,CLASSIFICATION_TYPE,NORAD_CAT_ID,ELEMENT_SET_NO,REV_AT_EPOCH,BSTAR,MEAN_MOTION_DOT,MEAN_MOTION_DDOT
2026-134A,2026-134A,2026-07-13T15:22:32.485728,15.09452984,.0015944,97.7005,264.8493,175.9385,184.1976,0,U,69538,999,430,.1549E-3,.242E-4,0
2026-134B,2026-134B,2026-07-13T15:18:17.388864,15.09609403,.0016057,97.6978,264.8443,178.3909,181.7374,0,U,69539,999,429,.15528E-3,.2437E-4,0
2026-134C,2026-134C,2026-07-13T15:17:25.687104,15.09641736,.0015543,97.6986,264.8472,179.5077,180.6169,0,U,69540,999,429,.15898E-3,.2498E-4,0
2026-134D,2026-134D,2026-07-13T15:15:52.158240,15.09699432,.0016579,97.7024,264.8626,179.5104,180.6144,0,U,69541,999,429,.15851E-3,.2495E-4,0
2026-134E,2026-134E,2026-07-13T13:39:49.931424,15.09720677,.001631,97.7044,264.8033,180.2386,179.8837,0,U,69542,999,428,.1556E-3,.2449E-4,0
2026-134F,2026-134F,2026-07-13T15:14:01.929120,15.09766365,.0015607,97.6997,264.8543,181.7327,178.3850,0,U,69543,999,429,.15888E-3,.2505E-4,0
2026-134G,2026-134G,2026-07-13T15:11:44.962656,15.09851680,.0016052,97.7041,264.8718,182.5157,177.5994,0,U,69544,999,429,.16771E-3,.2655E-4,0
2026-134H,2026-134H,2026-07-13T16:45:23.095008,15.09918402,.0015918,97.7025,264.9352,183.7041,176.4073,0,U,69545,999,429,.16448E-3,.2607E-4,0
STARLINK-37880,2026-135A,2026-07-14T04:00:01.998720,15.49212865,.0000316,97.2843,223.4522,139.8444,211.3327,0,U,69546,999,564,-.46162E-3,-.25137E-3,0
STARLINK-37881,2026-135B,2026-07-14T04:00:01.998720,15.49220273,.0001319,97.2843,223.5454,58.2152,150.3530,0,U,69547,999,564,-.44279E-3,-.24125E-3,0
STARLINK-37265,2026-135C,2026-07-14T04:00:01.998720,15.53471174,.000141,97.2837,223.6280,87.0941,307.3831,0,U,69548,999,564,-.44515E-1,-.2455305E-1,0
STARLINK-37871,2026-135D,2026-07-14T04:00:01.998720,15.49197439,.0001825,97.2840,223.5371,66.7252,121.6208,0,U,69549,999,564,-.51652E-3,-.28092E-3,0
STARLINK-37865,2026-135E,2026-07-14T04:00:01.998720,15.49201087,.0001469,97.2839,223.5490,89.7002,126.5325,0,U,69550,999,564,-.44587E-3,-.24276E-3,0
STARLINK-37862,2026-135F,2026-07-14T04:00:01.998720,15.55086179,.0001671,97.2841,223.6141,92.3935,272.2840,0,U,69551,999,564,-.21307E-1,-.1296422E-1,0
STARLINK-37861,2026-135G,2026-07-14T04:00:01.998720,15.49190533,.000039,97.2835,223.5721,129.8012,141.4912,0,U,69552,999,564,-.3843E-3,-.20936E-3,0
STARLINK-37859,2026-135H,2026-07-14T04:00:01.998720,15.49796086,.0002049,97.2840,223.5879,73.6940,236.4545,0,U,69553,999,564,-.18134E-1,-.926553E-2,0
STARLINK-37860,2026-135J,2026-07-14T04:00:01.998720,15.51701056,.0001524,97.2836,223.6313,49.0066,348.1722,0,U,69554,999,564,-.36291E-1,-.1902394E-1,0
STARLINK-37858,2026-135K,2026-07-14T04:00:01.998720,15.50371508,.0001695,97.2845,223.6129,92.4006,274.8334,0,U,69555,999,564,-.32489E-1,-.1652517E-1,0
STARLINK-37927,2026-135L,2026-07-14T04:00:01.998720,15.49211047,.0001047,97.2835,223.5672,79.3137,177.3492,0,U,69556,999,564,-.58251E-3,-.31668E-3,0
STARLINK-37929,2026-135M,2026-07-14T04:00:01.998720,15.49211126,.0001452,97.2840,223.5239,90.6579,69.0457,0,U,69557,999,564,-.56423E-3,-.30682E-3,0
STARLINK-37954,2026-135N,2026-07-14T04:00:01.998720,15.49209234,.0000739,97.2840,223.5271,75.2381,91.2895,0,U,69558,999,564,-.51258E-3,-.27888E-3,0
STARLINK-37958,2026-135P,2026-07-14T04:00:01.998720,15.56295860,.00017,97.2854,223.6819,57.5063,99.3607,0,U,69559,999,564,-.40543E-1,-.2478744E-1,0
STARLINK-37950,2026-135Q,2026-07-14T04:00:01.998720,15.51758342,.0001525,97.2837,223.6241,74.2009,319.8997,0,U,69560,999,564,-.31638E-1,-.1686984E-1,0
STARLINK-37952,2026-135R,2026-07-14T04:00:01.998720,15.49217165,.0001396,97.2835,223.5785,66.0591,217.2722,0,U,69561,999,564,-.29265E-3,-.1599E-3,0
STARLINK-37935,2026-135S,2026-07-14T04:00:01.998720,15.49213258,.0001494,97.2844,223.5317,85.6539,90.4933,0,U,69562,999,564,-.43863E-3,-.23894E-3,0
STARLINK-37936,2026-135T,2026-07-14T04:00:01.998720,15.49214503,.0001685,97.2834,223.5654,80.0599,174.0472,0,U,69563,999,564,-.38891E-3,-.21205E-3,0
STARLINK-37932,2026-135U,2026-07-14T04:00:01.998720,15.51629514,.0001298,97.2839,223.6652,36.5282,87.7774,0,U,69564,999,564,-.64034E-1,-.3315782E-1,0
STARLINK-37916,2026-135V,2026-07-14T04:00:01.998720,15.49186451,.0001338,97.2834,223.6218,80.2454,309.1642,0,U,69565,999,564,-.29694E-3,-.16206E-3,0
STARLINK-37909,2026-135W,2026-07-14T04:00:01.998720,15.56532590,.0001659,97.2838,223.7251,79.4144,179.8311,0,U,69566,999,564,-.39933E-1,-.2465148E-1,0
STARLINK-37934,2026-135X,2026-07-14T04:00:01.998720,15.49208489,.0001147,97.2842,223.6236,59.2844,332.8951,0,U,69567,999,564,-.3226E-3,-.17608E-3,0
