2026-134A               
1 69538U 26134A   26194.64065377  .00002420  00000+0  15490-3 0  9996
2 69538  97.7005 264.8493 0015944 175.9385 184.1976 15.09452984  4308
2026-134B               
1 69539U 26134B   26194.63770126  .00002437  00000+0  15528-3 0  9991
2 69539  97.6978 264.8443 0016057 178.3909 181.7374 15.09609403  4290
2026-134C               
1 69540U 26134C   26194.63710286  .00002498  00000+0  15898-3 0  9991
2 69540  97.6986 264.8472 0015543 179.5077 180.6169 15.09641736  4296
2026-134D               
1 69541U 26134D   26194.63602035  .00002495  00000+0  15851-3 0  9990
2 69541  97.7024 264.8626 0016579 179.5104 180.6144 15.09699432  4292
2026-134E               
1 69542U 26134E   26194.56932791  .00002449  00000+0  15560-3 0  9994
2 69542  97.7044 264.8033 0016310 180.2386 179.8837 15.09720677  4285
2026-134F               
1 69543U 26134F   26194.63474455  .00002505  00000+0  15888-3 0  9997
2 69543  97.6997 264.8543 0015607 181.7327 178.3850 15.09766365  4291
2026-134G               
1 69544U 26134G   26194.63315929  .00002655  00000+0  16771-3 0  9996
2 69544  97.7041 264.8718 0016052 182.5157 177.5994 15.09851680  4297
2026-134H               
1 69545U 26134H   26194.69818397  .00002607  00000+0  16448-3 0  9998
2 69545  97.7025 264.9352 0015918 183.7041 176.4073 15.09918402  4292
STARLINK-37880          
1 69546U 26135A   26195.16668980 -.00025137  00000+0 -46162-3 0  9995
2 69546  97.2843 223.4522 0000316 139.8444 211.3327 15.49212865  5645
STARLINK-37881          
1 69547U 26135B   26195.16668980 -.00024125  00000+0 -44279-3 0  9999
2 69547  97.2843 223.5454 0001319  58.2152 150.3530 15.49220273  5645
STARLINK-37265          
1 69548U 26135C   26195.16668980 -.02455305  00000+0 -44515-1 0  9991
2 69548  97.2837 223.6280 0001410  87.0941 307.3831 15.53471174  5646
STARLINK-37871          
1 69549U 26135D   26195.16668980 -.00028092  00000+0 -51652-3 0  9991
2 69549  97.2840 223.5371 0001825  66.7252 121.6208 15.49197439  5649
STARLINK-37865          
1 69550U 26135E   26195.16668980 -.00024276  00000+0 -44587-3 0  9992
2 69550  97.2839 223.5490 0001469  89.7002 126.5325 15.49201087  5642
STARLINK-37862          
1 69551U 26135F   26195.16668980 -.01296422  00000+0 -21307-1 0  9991
2 69551  97.2841 223.6141 0001671  92.3935 272.2840 15.55086179  5641
STARLINK-37861          
1 69552U 26135G   26195.16668980 -.00020936  00000+0 -38430-3 0  9993
2 69552  97.2835 223.5721 0000390 129.8012 141.4912 15.49190533  5647
STARLINK-37859          
1 69553U 26135H   26195.16668980 -.00926553  00000+0 -18134-1 0  9991
2 69553  97.2840 223.5879 0002049  73.6940 236.4545 15.49796086  5649
STARLINK-37860          
1 69554U 26135J   26195.16668980 -.01902394  00000+0 -36291-1 0  9994
2 69554  97.2836 223.6313 0001524  49.0066 348.1722 15.51701056  5646
STARLINK-37858          
1 69555U 26135K   26195.16668980 -.01652517  00000+0 -32489-1 0  9999
2 69555  97.2845 223.6129 0001695  92.4006 274.8334 15.50371508  5645
STARLINK-37927          
1 69556U 26135L   26195.16668980 -.00031668  00000+0 -58251-3 0  9994
2 69556  97.2835 223.5672 0001047  79.3137 177.3492 15.49211047  5648
STARLINK-37929          
1 69557U 26135M   26195.16668980 -.00030682  00000+0 -56423-3 0  9999
2 69557  97.2840 223.5239 0001452  90.6579  69.0457 15.49211126  5646
STARLINK-37954          
1 69558U 26135N   26195.16668980 -.00027888  00000+0 -51258-3 0  9995
2 69558  97.2840 223.5271 0000739  75.2381  91.2895 15.49209234  5640
STARLINK-37958          
1 69559U 26135P   26195.16668980 -.02478744  00000+0 -40543-1 0  9992
2 69559  97.2854 223.6819 0001700  57.5063  99.3607 15.56295860  5642
STARLINK-37950          
1 69560U 26135Q   26195.16668980 -.01686984  00000+0 -31638-1 0  9995
2 69560  97.2837 223.6241 0001525  74.2009 319.8997 15.51758342  5641
STARLINK-37952          
1 69561U 26135R   26195.16668980 -.00015990  00000+0 -29265-3 0  9993
2 69561  97.2835 223.5785 0001396  66.0591 217.2722 15.49217165  5640
STARLINK-37935          
1 69562U 26135S   26195.16668980 -.00023894  00000+0 -43863-3 0  9996
2 69562  97.2844 223.5317 0001494  85.6539  90.4933 15.49213258  5644
STARLINK-37936          
1 69563U 26135T   26195.16668980 -.00021205  00000+0 -38891-3 0  9996
2 69563  97.2834 223.5654 0001685  80.0599 174.0472 15.49214503  5646
STARLINK-37932          
1 69564U 26135U   26195.16668980 -.03315782  00000+0 -64034-1 0  9992
2 69564  97.2839 223.6652 0001298  36.5282  87.7774 15.51629514  5646
STARLINK-37916          
1 69565U 26135V   26195.16668980 -.00016206  00000+0 -29694-3 0  9994
2 69565  97.2834 223.6218 0001338  80.2454 309.1642 15.49186451  5642
STARLINK-37909          
1 69566U 26135W   26195.16668980 -.02465148  00000+0 -39933-1 0  9995
2 69566  97.2838 223.7251 0001659  79.4144 179.8311 15.56532590  5649
STARLINK-37934          
1 69567U 26135X   26195.16668980 -.00017608  00000+0 -32260-3 0  9996
2 69567  97.2842 223.6236 0001147  59.2844 332.8951 15.49208489  5642
